start=new Date('2023-01-13T00:00:00.000Z').valueOf();
sats=[{"GP_ID":"222863924","PERIAPSIS":"538.368","SEMIMAJOR_AXIS":"6917.952","MEAN_MOTION":"15.08816475","CENTER_NAME":"EARTH","NORAD_CAT_ID":"53622","FILE":"3742087","OBJECT_TYPE":"PAYLOAD","OBJECT_NAME":"STARLINK-4568","ARG_OF_PERICENTER":"26.7247","COUNTRY_CODE":"US","REV_AT_EPOCH":"2120","LAUNCH_DATE":"2022-08-28","INCLINATION":"53.2181","CLASSIFICATION_TYPE":"U","ECCENTRICITY":"0.00020950","TIME_SYSTEM":"UTC","OBJECT_ID":"2022-104AL","EPOCH":"2023-01-13T00:13:10.261920","MEAN_ELEMENT_THEORY":"SGP4","RCS_SIZE":"LARGE","EPHEMERIS_TYPE":"0","TLE_LINE1":"1 53622U 22104AL  23013.00914655 -.00005383  00000-0 -32055-3 0  9995","RA_OF_ASC_NODE":"3.9875","BSTAR":"-0.00032055000000","DECAY_DATE":null,"TLE_LINE2":"2 53622  53.2181   3.9875 0002095  26.7247 333.3853 15.08816475 21204","APOAPSIS":"541.267","MEAN_ANOMALY":"333.3853","PERIOD":"95.439","MEAN_MOTION_DDOT":"0.0000000000000","MEAN_MOTION_DOT":"-0.00005383","REF_FRAME":"TEME","ELEMENT_SET_NO":"999","SITE":"AFETR"},{"TLE_LINE1":"1 53623U 22104AM  23012.95301095  .00000028  00000-0  19853-4 0  9998","EPHEMERIS_TYPE":"0","RCS_SIZE":"LARGE","BSTAR":"0.00001985300000","DECAY_DATE":null,"RA_OF_ASC_NODE":"4.3386","APOAPSIS":"540.829","MEAN_ANOMALY":"265.1321","PERIOD":"95.438","MEAN_MOTION_DDOT":"0.0000000000000","TLE_LINE2":"2 53623  53.2188   4.3386 0001547  94.9848 265.1321 15.08835580 21872","ELEMENT_SET_NO":"999","SITE":"AFETR","MEAN_MOTION_DOT":"0.00000028","REF_FRAME":"TEME","SEMIMAJOR_AXIS":"6917.894","MEAN_MOTION":"15.08835580","PERIAPSIS":"538.689","GP_ID":"222892205","OBJECT_NAME":"STARLINK-4573","COUNTRY_CODE":"US","ARG_OF_PERICENTER":"94.9848","CENTER_NAME":"EARTH","OBJECT_TYPE":"PAYLOAD","FILE":"3742227","NORAD_CAT_ID":"53623","CLASSIFICATION_TYPE":"U","LAUNCH_DATE":"2022-08-28","INCLINATION":"53.2188","REV_AT_EPOCH":"2187","MEAN_ELEMENT_THEORY":"SGP4","EPOCH":"2023-01-12T22:52:20.146080","OBJECT_ID":"2022-104AM","ECCENTRICITY":"0.00015470","TIME_SYSTEM":"UTC"},{"SEMIMAJOR_AXIS":"6917.912","MEAN_MOTION":"15.08829722","PERIAPSIS":"538.839","GP_ID":"222892442","OBJECT_NAME":"STARLINK-4596","COUNTRY_CODE":"US","ARG_OF_PERICENTER":"83.6454","CENTER_NAME":"EARTH","OBJECT_TYPE":"PAYLOAD","NORAD_CAT_ID":"53624","FILE":"3742227","CLASSIFICATION_TYPE":"U","LAUNCH_DATE":"2022-08-28","INCLINATION":"53.2170","REV_AT_EPOCH":"2187","EPOCH":"2023-01-12T22:36:24.358176","MEAN_ELEMENT_THEORY":"SGP4","OBJECT_ID":"2022-104AN","ECCENTRICITY":"0.00013560","TIME_SYSTEM":"UTC","TLE_LINE1":"1 53624U 22104AN  23012.94194859 -.00005122  00000-0 -30402-3 0  9990","EPHEMERIS_TYPE":"0","RCS_SIZE":"LARGE","BSTAR":"-0.00030402000000","DECAY_DATE":null,"RA_OF_ASC_NODE":"4.2706","APOAPSIS":"540.715","MEAN_ANOMALY":"276.4692","PERIOD":"95.438","MEAN_MOTION_DDOT":"0.0000000000000","TLE_LINE2":"2 53624  53.2170   4.2706 0001356  83.6454 276.4692 15.08829722 21872","ELEMENT_SET_NO":"999","SITE":"AFETR","MEAN_MOTION_DOT":"-0.00005122","REF_FRAME":"TEME"},{"LAUNCH_DATE":"2022-08-28","REV_AT_EPOCH":"2120","INCLINATION":"53.2192","CLASSIFICATION_TYPE":"U","OBJECT_ID":"2022-104AP","MEAN_ELEMENT_THEORY":"SGP4","EPOCH":"2023-01-13T00:17:06.576288","ECCENTRICITY":"0.00017500","TIME_SYSTEM":"UTC","PERIAPSIS":"538.547","SEMIMAJOR_AXIS":"6917.893","MEAN_MOTION":"15.08835925","GP_ID":"222862910","ARG_OF_PERICENTER":"98.2596","COUNTRY_CODE":"US","OBJECT_NAME":"STARLINK-4603","NORAD_CAT_ID":"53625","FILE":"3742036","OBJECT_TYPE":"PAYLOAD","CENTER_NAME":"EARTH","MEAN_MOTION_DDOT":"0.0000000000000","APOAPSIS":"540.968","MEAN_ANOMALY":"261.8595","PERIOD":"95.438","TLE_LINE2":"2 53625  53.2192   3.9990 0001750  98.2596 261.8595 15.08835925 21204","SITE":"AFETR","ELEMENT_SET_NO":"999","REF_FRAME":"TEME","MEAN_MOTION_DOT":"0.00001515","TLE_LINE1":"1 53625U 22104AP  23013.01188167  .00001515  00000-0  11330-3 0  9994","RCS_SIZE":"LARGE","EPHEMERIS_TYPE":"0","DECAY_DATE":null,"BSTAR":"0.00011330000000","RA_OF_ASC_NODE":"3.9990"},{"MEAN_MOTION_DDOT":"0.0000000000000","MEAN_ANOMALY":"327.5572","APOAPSIS":"541.667","PERIOD":"95.440","TLE_LINE2":"2 53626  53.2198   5.4063 0002631  32.5582 327.5572 15.08806945 21849","SITE":"AFETR","ELEMENT_SET_NO":"999","REF_FRAME":"TEME","MEAN_MOTION_DOT":"-0.00003753","TLE_LINE1":"1 53626U 22104AQ  23012.66594453 -.00003753  00000-0 -21801-3 0  9996","RCS_SIZE":"LARGE","EPHEMERIS_TYPE":"0","DECAY_DATE":null,"BSTAR":"-0.00021801000000","RA_OF_ASC_NODE":"5.4063","REV_AT_EPOCH":"2184","LAUNCH_DATE":"2022-08-28","INCLINATION":"53.2198","CLASSIFICATION_TYPE":"U","OBJECT_ID":"2022-104AQ","MEAN_ELEMENT_THEORY":"SGP4","EPOCH":"2023-01-12T15:58:57.607392","TIME_SYSTEM":"UTC","ECCENTRICITY":"0.00026310","PERIAPSIS":"538.026","SEMIMAJOR_AXIS":"6917.981","MEAN_MOTION":"15.08806945","GP_ID":"222892914","ARG_OF_PERICENTER":"32.5582","COUNTRY_CODE":"US","OBJECT_NAME":"STARLINK-4554","NORAD_CAT_ID":"53626","FILE":"3742227","OBJECT_TYPE":"PAYLOAD","CENTER_NAME":"EARTH"},{"MEAN_MOTION_DOT":"-0.00001614","REF_FRAME":"TEME","ELEMENT_SET_NO":"999","SITE":"AFETR","TLE_LINE2":"2 53627  53.2185   5.4389 0002245  44.2716 315.8455 15.08825604 21840","MEAN_ANOMALY":"315.8455","APOAPSIS":"541.342","PERIOD":"95.438","MEAN_MOTION_DDOT":"0.0000000000000","RA_OF_ASC_NODE":"5.4389","BSTAR":"-0.00008335800000","DECAY_DATE":null,"RCS_SIZE":"LARGE","EPHEMERIS_TYPE":"0","TLE_LINE1":"1 53627U 22104AR  23012.67330697 -.00001614  00000-0 -83358-4 0  9996","ECCENTRICITY":"0.00022450","TIME_SYSTEM":"UTC","OBJECT_ID":"2022-104AR","MEAN_ELEMENT_THEORY":"SGP4","EPOCH":"2023-01-12T16:09:33.722208","INCLINATION":"53.2185","LAUNCH_DATE":"2022-08-28","REV_AT_EPOCH":"2184","CLASSIFICATION_TYPE":"U","CENTER_NAME":"EARTH","FILE":"3742227","NORAD_CAT_ID":"53627","OBJECT_TYPE":"PAYLOAD","OBJECT_NAME":"STARLINK-4595","ARG_OF_PERICENTER":"44.2716","COUNTRY_CODE":"US","GP_ID":"222891729","PERIAPSIS":"538.236","SEMIMAJOR_AXIS":"6917.924","MEAN_MOTION":"15.08825604"},{"CLASSIFICATION_TYPE":"U","INCLINATION":"53.2189","LAUNCH_DATE":"2022-08-28","REV_AT_EPOCH":"2120","TIME_SYSTEM":"UTC","ECCENTRICITY":"0.00027950","EPOCH":"2023-01-12T23:45:14.678208","MEAN_ELEMENT_THEORY":"SGP4","OBJECT_ID":"2022-104AS","GP_ID":"222863931","MEAN_MOTION":"15.08814711","SEMIMAJOR_AXIS":"6917.958","PERIAPSIS":"537.889","OBJECT_TYPE":"PAYLOAD","NORAD_CAT_ID":"53628","FILE":"3742087","CENTER_NAME":"EARTH","COUNTRY_CODE":"US","ARG_OF_PERICENTER":"10.2048","OBJECT_NAME":"STARLINK-4600","TLE_LINE2":"2 53628  53.2189   3.8714 0002795  10.2048 349.9000 15.08814711 21201","MEAN_MOTION_DDOT":"0.0000000000000","PERIOD":"95.439","APOAPSIS":"541.756","MEAN_ANOMALY":"349.9000","REF_FRAME":"TEME","MEAN_MOTION_DOT":"-0.00011875","SITE":"AFETR","ELEMENT_SET_NO":"999","EPHEMERIS_TYPE":"0","RCS_SIZE":"LARGE","TLE_LINE1":"1 53628U 22104AS  23012.98975322 -.00011875  00000-0 -72965-3 0  9992","RA_OF_ASC_NODE":"3.8714","DECAY_DATE":null,"BSTAR":"-0.00072965000000"},{"SITE":"AFETR","ELEMENT_SET_NO":"999","REF_FRAME":"TEME","MEAN_MOTION_DOT":"0.00000571","MEAN_MOTION_DDOT":"0.0000000000000","APOAPSIS":"541.580","MEAN_ANOMALY":"329.0936","PERIOD":"95.439","TLE_LINE2":"2 53629  53.2179   4.2321 0002555  31.0207 329.0936 15.08817899 21883","DECAY_DATE":null,"BSTAR":"0.00005399300000","RA_OF_ASC_NODE":"4.2321","TLE_LINE1":"1 53629U 22104AT  23012.93458926  .00000571  00000-0  53993-4 0  9994","RCS_SIZE":"LARGE","EPHEMERIS_TYPE":"0","OBJECT_ID":"2022-104AT","MEAN_ELEMENT_THEORY":"SGP4","EPOCH":"2023-01-12T22:25:48.512064","ECCENTRICITY":"0.00025550","TIME_SYSTEM":"UTC","REV_AT_EPOCH":"2188","LAUNCH_DATE":"2022-08-28","INCLINATION":"53.2179","CLASSIFICATION_TYPE":"U","ARG_OF_PERICENTER":"31.0207","COUNTRY_CODE":"US","OBJECT_NAME":"STARLINK-4602","NORAD_CAT_ID":"53629","FILE":"3742227","OBJECT_TYPE":"PAYLOAD","CENTER_NAME":"EARTH","PERIAPSIS":"538.045","MEAN_MOTION":"15.08817899","SEMIMAJOR_AXIS":"6917.948","GP_ID":"222893152"},{"RCS_SIZE":"LARGE","EPHEMERIS_TYPE":"0","TLE_LINE1":"1 53630U 22104AU  23012.63746127 -.00001311  00000-0 -64302-4 0  9997","RA_OF_ASC_NODE":"355.9409","BSTAR":"-0.00006430200000","DECAY_DATE":null,"TLE_LINE2":"2 53630  53.2174 355.9409 0001735  47.6138 312.5001 15.08826037 22142","MEAN_ANOMALY":"312.5001","APOAPSIS":"540.988","PERIOD":"95.438","MEAN_MOTION_DDOT":"0.0000000000000","MEAN_MOTION_DOT":"-0.00001311","REF_FRAME":"TEME","ELEMENT_SET_NO":"999","SITE":"AFETR","GP_ID":"222893386","PERIAPSIS":"538.588","MEAN_MOTION":"15.08826037","SEMIMAJOR_AXIS":"6917.923","CENTER_NAME":"EARTH","NORAD_CAT_ID":"53630","FILE":"3742227","OBJECT_TYPE":"PAYLOAD","OBJECT_NAME":"STARLINK-4598","ARG_OF_PERICENTER":"47.6138","COUNTRY_CODE":"US","INCLINATION":"53.2174","LAUNCH_DATE":"2022-08-28","REV_AT_EPOCH":"2214","CLASSIFICATION_TYPE":"U","TIME_SYSTEM":"UTC","ECCENTRICITY":"0.00017350","OBJECT_ID":"2022-104AU","MEAN_ELEMENT_THEORY":"SGP4","EPOCH":"2023-01-12T15:17:56.653728"},{"ARG_OF_PERICENTER":"33.7404","COUNTRY_CODE":"US","OBJECT_NAME":"STARLINK-4599","NORAD_CAT_ID":"53631","FILE":"3742227","OBJECT_TYPE":"PAYLOAD","CENTER_NAME":"EARTH","PERIAPSIS":"538.120","SEMIMAJOR_AXIS":"6917.875","MEAN_MOTION":"15.08841778","GP_ID":"222892206","OBJECT_ID":"2022-104AV","MEAN_ELEMENT_THEORY":"SGP4","EPOCH":"2023-01-12T11:07:28.009632","ECCENTRICITY":"0.00023410","TIME_SYSTEM":"UTC","INCLINATION":"53.2193","LAUNCH_DATE":"2022-08-28","REV_AT_EPOCH":"2181","CLASSIFICATION_TYPE":"U","DECAY_DATE":null,"BSTAR":"-0.00002886200000","RA_OF_ASC_NODE":"6.2711","TLE_LINE1":"1 53631U 22104AV  23012.46351863 -.00000748  00000-0 -28862-4 0  9992","RCS_SIZE":"LARGE","EPHEMERIS_TYPE":"0","SITE":"AFETR","ELEMENT_SET_NO":"999","REF_FRAME":"TEME","MEAN_MOTION_DOT":"-0.00000748","MEAN_MOTION_DDOT":"0.0000000000000","MEAN_ANOMALY":"326.3736","APOAPSIS":"541.359","PERIOD":"95.437","TLE_LINE2":"2 53631  53.2193   6.2711 0002341  33.7404 326.3736 15.08841778 21812"}];
